PERSEUS-M1              
1 40039U 14033AF  26139.40087593  .00001242  00000+0  11741-3 0  9999
2 40039  97.9635  83.0654 0012674  39.4863 320.7279 14.95525884646339
POLYITAN-1              
1 40042U 14033AJ  26140.04501155  .00013074  00000+0  42312-3 0  9994
2 40042  98.0962 163.6665 0005784 234.7001 125.3698 15.32186242649287
TIGRISAT                
1 40043U 14033AK  26140.15433426  .00001389  00000+0  16551-3 0  9994
2 40043  97.7800 290.8168 0049856 165.0739 195.1962 14.85027277641468
AEROCUBE 6A             
1 40045U 14033AM  26139.96757500  .00003448  00000+0  29408-3 0  9998
2 40045  97.7226 307.2283 0040077 109.2697 251.2867 14.97764196642394
AEROCUBE 6B             
1 40046U 14033AN  26140.19742524  .00004350  00000+0  35663-3 0  9999
2 40046  97.7181 307.1864 0038660 101.8070 258.7493 14.99188741642561
CANX-4                  
1 40055U 14034C   26140.18542654  .00000564  00000+0  79736-4 0  9994
2 40055  98.3156  14.4664 0014120 100.0392 260.2413 14.81206191640388
CANX-5                  
1 40056U 14034D   26140.18418306  .00000569  00000+0  80344-4 0  9993
2 40056  98.3159  14.5070 0014113 100.2391 260.0413 14.81223276631197
UKUBE-1                 
1 40074U 14037F   26139.93433957  .00005901  00000+0  33816-3 0  9992
2 40074  98.4244 140.2507 0000498 135.0570 225.0699 15.13046315644285
BRITE-PL2 (HEWELIUSZ)   
1 40119U 14049B   26139.24915404  .00001400  00000+0  13507-3 0  9996
2 40119  97.9066 251.0338 0013642 200.1054 159.9630 14.94470930637127
AEROCUBE 5C             
1 40965U 15058B   26140.00708012  .00002033  00000+0  18855-3 0  9991
2 40965  64.7680 350.2467 0129951  74.3559 287.1849 14.91278612361453
AEROCUBE 7              
1 40966U 15058C   26139.94962413  .00003008  00000+0  24887-3 0  9995
2 40966  64.7629 333.2469 0119725  73.0363 288.3832 14.95488065361732
FOX-1A (AO-85)          
1 40967U 15058D   26139.91130133  .00002122  00000+0  19897-3 0  9990
2 40967  64.7763   6.8455 0129250  67.6906 293.7849 14.90787273109350
SINOD-D 1               
1 40968U 15058E   26139.99780890  .00002968  00000+0  24574-3 0  9996
2 40968  64.7759 347.1758 0117765  64.4013 296.9216 14.95666796112443
SNAP-3 ALICE            
1 40970U 15058G   26140.16768652  .00065545  00000+0  97171-3 0  9995
2 40970  64.7513 200.3201 0033480  26.3204 333.9631 15.54197665112529
LMRST-SAT               
1 40971U 15058H   26140.06076237  .00002104  00000+0  19855-3 0  9991
2 40971  64.7769   2.6661 0131012  69.6512 291.8619 14.90413776109367
SNAP-3 EDDIE            
1 40972U 15058J   26139.85768390  .00068542  00000+0  97429-3 0  9996
2 40972  64.7431 192.3103 0033706  30.1939 330.1138 15.55313193114610
PROPCUBE 3              
1 40973U 15058K   26140.16509617  .00002502  00000+0  21589-3 0  9996
2 40973  64.7690 340.0744 0123127  71.0923 290.3491 14.94049414110614
BISONSAT                
1 40974U 15058L   26139.73095603  .00007776  00000+0  38718-3 0  9993
2 40974  64.7603 265.5963 0078574  59.3035 301.5801 15.15567997111303
SNAP-3 JIMI             
1 40975U 15058M   26139.89467661  .00004103  00000+0  28983-3 0  9992
2 40975  64.7653 309.2669 0105121  67.1249 294.0925 15.01986603109978
PROPCUBE 1 (FLORA)      
1 40976U 15058N   26140.05698020  .00001997  00000+0  19660-3 0  9998
2 40976  64.7760  22.4084 0129806  71.9318 289.5884 14.89044934112074
SINOD-D 3               
1 40977U 15058P   26140.05811037  .00002810  00000+0  24500-3 0  9998
2 40977  64.7734   3.6432 0118280  69.3837 291.9915 14.93780341110552
HORYU-4                 
1 41340U 16012D   26140.07310730  .00168826  00000+0  85162-3 0  9991
2 41340  30.9886 282.7816 0004402  84.7285 275.3874 15.80017003566341
RAVAN                   
1 41849U 16067B   26139.24580171  .00028457  00000+0  47667-3 0  9993
2 41849  97.9929  25.5391 0007194 103.2439 256.9614 15.51802776523208
CELTEE 1                
1 41850U 16067C   26140.15450490  .00003565  00000+0  17225-3 0  9997
2 41850  98.0704   4.8110 0001439  56.1866 303.9504 15.19373973521629
OPTICUBE 04             
1 41851U 16067D   26140.04088990  .00001264  00000+0  83133-4 0  9994
2 41851  98.0725 350.8547 0014924 208.4717 151.5697 15.09525931520925
AEROCUBE 8D             
1 41852U 16067E   26140.18851374  .00005270  00000+0  22118-3 0  9990
2 41852  98.0712   8.2341 0002424 208.2335 151.8769 15.23960852521806
AEROCUBE 8C             
1 41853U 16067F   26140.15233177  .00005191  00000+0  21630-3 0  9993
2 41853  98.0583   5.4594 0006120 144.8910 215.2730 15.24200198521795
CORVUS BC2              
1 42846U 17042X   26140.15951736  .00001488  00000+0  10575-3 0  9999
2 42846  97.4041 302.6080 0012527 201.1021 158.9691 15.06092319482845
CORVUS BC1              
1 42847U 17042Y   26140.02445020  .00001579  00000+0  11146-3 0  9996
2 42847  97.4071 303.2738 0012007 177.4369 182.6922 15.06262625482850
MAKERSAT 0              
1 43016U 17073D   26140.15046530  .00019371  00000+0  53977-3 0  9993
2 43016  97.4658  22.4711 0110325  13.9089 346.5147 15.30825236462179
