OBJECT_NAME,OBJECT_ID,EPOCH,MEAN_MOTION,ECCENTRICITY,INCLINATION,RA_OF_ASC_NODE,ARG_OF_PERICENTER,MEAN_ANOMALY,EPHEMERIS_TYPE,CLASSIFICATION_TYPE,NORAD_CAT_ID,ELEMENT_SET_NO,REV_AT_EPOCH,BSTAR,MEAN_MOTION_DOT,MEAN_MOTION_DDOT
PERSEUS-M1,2014-033AF,2026-05-19T09:37:15.680352,14.95525884,.00126742,97.9635,83.0654,39.4863,320.7279,0,U,40039,999,64633,.11740598E-3,.1242E-4,0
POLYITAN-1,2014-033AJ,2026-05-20T01:04:48.997920,15.32186242,.0005784,98.0962,163.6665,234.7001,125.3698,0,U,40042,999,64928,.42312E-3,.13074E-3,0
TIGRISAT,2014-033AK,2026-05-20T03:42:14.480064,14.85027277,.0049856,97.7800,290.8168,165.0739,195.1962,0,U,40043,999,64146,.16551E-3,.1389E-4,0
AEROCUBE 6A,2014-033AM,2026-05-19T23:13:18.480000,14.97764196,.0040077,97.7226,307.2283,109.2697,251.2867,0,U,40045,999,64239,.29408E-3,.3448E-4,0
AEROCUBE 6B,2014-033AN,2026-05-20T04:44:17.540736,14.99188741,.003866,97.7181,307.1864,101.8070,258.7493,0,U,40046,999,64256,.35663E-3,.435E-4,0
CANX-4,2014-034C,2026-05-20T04:27:00.853056,14.81206191,.001412,98.3156,14.4664,100.0392,260.2413,0,U,40055,999,64038,.79736E-4,.564E-5,0
CANX-5,2014-034D,2026-05-20T04:25:13.416384,14.81223276,.0014113,98.3159,14.5070,100.2391,260.0413,0,U,40056,999,63119,.80344E-4,.569E-5,0
UKUBE-1,2014-037F,2026-05-19T22:25:26.938848,15.13046315,.0000498,98.4244,140.2507,135.0570,225.0699,0,U,40074,999,64428,.33816E-3,.5901E-4,0
BRITE-PL2 (HEWELIUSZ),2014-049B,2026-05-19T05:58:46.909056,14.94470930,.0013642,97.9066,251.0338,200.1054,159.9630,0,U,40119,999,63712,.13507E-3,.14E-4,0
AEROCUBE 5C,2015-058B,2026-05-20T00:10:11.722368,14.91278612,.0129951,64.7680,350.2467,74.3559,287.1849,0,U,40965,999,36145,.18855E-3,.2033E-4,0
AEROCUBE 7,2015-058C,2026-05-19T22:47:27.524832,14.95488065,.0119725,64.7629,333.2469,73.0363,288.3832,0,U,40966,999,36173,.24887E-3,.3008E-4,0
FOX-1A (AO-85),2015-058D,2026-05-19T21:52:16.434912,14.90787273,.012925,64.7763,6.8455,67.6906,293.7849,0,U,40967,999,10935,.19897E-3,.2122E-4,0
SINOD-D 1,2015-058E,2026-05-19T23:56:50.688960,14.95666796,.0117765,64.7759,347.1758,64.4013,296.9216,0,U,40968,999,11244,.24574E-3,.2968E-4,0
SNAP-3 ALICE,2015-058G,2026-05-20T04:01:28.115328,15.54197665,.003348,64.7513,200.3201,26.3204,333.9631,0,U,40970,999,11252,.97171E-3,.65545E-3,0
LMRST-SAT,2015-058H,2026-05-20T01:27:29.868768,14.90413776,.0131012,64.7769,2.6661,69.6512,291.8619,0,U,40971,999,10936,.19855E-3,.2104E-4,0
SNAP-3 EDDIE,2015-058J,2026-05-19T20:35:03.888960,15.55313193,.00337062,64.7431,192.3103,30.1939,330.1138,0,U,40972,999,11461,.97429449E-3,.68542E-3,0
PROPCUBE 3,2015-058K,2026-05-20T03:57:44.309088,14.94049414,.0123127,64.7690,340.0744,71.0923,290.3491,0,U,40973,999,11061,.21589E-3,.2502E-4,0
BISONSAT,2015-058L,2026-05-19T17:32:34.600992,15.15567997,.00785744,64.7603,265.5963,59.3035,301.5801,0,U,40974,999,11130,.3871829E-3,.7776E-4,0
SNAP-3 JIMI,2015-058M,2026-05-19T21:28:20.059104,15.01986603,.0105121,64.7653,309.2669,67.1249,294.0925,0,U,40975,999,10997,.28983E-3,.4103E-4,0
PROPCUBE 1 (FLORA),2015-058N,2026-05-20T01:22:03.089280,14.89044934,.0129806,64.7760,22.4084,71.9318,289.5884,0,U,40976,999,11207,.1966E-3,.1997E-4,0
SINOD-D 3,2015-058P,2026-05-20T01:23:40.735968,14.93780341,.011828,64.7734,3.6432,69.3837,291.9915,0,U,40977,999,11055,.245E-3,.281E-4,0
HORYU-4,2016-012D,2026-05-20T01:45:16.470720,15.80017003,.0004402,30.9886,282.7816,84.7285,275.3874,0,U,41340,999,56634,.85162E-3,.168826E-2,0
RAVAN,2016-067B,2026-05-19T05:53:57.267744,15.51802776,.0007194,97.9929,25.5391,103.2439,256.9614,0,U,41849,999,52320,.47667E-3,.28457E-3,0
CELTEE 1,2016-067C,2026-05-20T03:42:29.223360,15.19373973,.0001439,98.0704,4.8110,56.1866,303.9504,0,U,41850,999,52162,.17225E-3,.3565E-4,0
OPTICUBE 04,2016-067D,2026-05-20T00:58:52.887360,15.09525931,.0014924,98.0725,350.8547,208.4717,151.5697,0,U,41851,999,52092,.83133E-4,.1264E-4,0
AEROCUBE 8D,2016-067E,2026-05-20T04:31:27.587136,15.23960852,.0002424,98.0712,8.2341,208.2335,151.8769,0,U,41852,999,52180,.22118E-3,.527E-4,0
AEROCUBE 8C,2016-067F,2026-05-20T03:39:21.464928,15.24200198,.000612,98.0583,5.4594,144.8910,215.2730,0,U,41853,999,52179,.2163E-3,.5191E-4,0
CORVUS BC2,2017-042X,2026-05-20T03:49:42.299904,15.06092319,.0012527,97.4041,302.6080,201.1021,158.9691,0,U,42846,999,48284,.10575E-3,.1488E-4,0
CORVUS BC1,2017-042Y,2026-05-20T00:35:12.497280,15.06262625,.0012007,97.4071,303.2738,177.4369,182.6922,0,U,42847,999,48285,.11146E-3,.1579E-4,0
MAKERSAT 0,2017-073D,2026-05-20T03:36:40.201920,15.30825236,.0110325,97.4658,22.4711,13.9089,346.5147,0,U,43016,999,46217,.53977E-3,.19371E-3,0
